OBJECT_NAME,OBJECT_ID,EPOCH,MEAN_MOTION,ECCENTRICITY,INCLINATION,RA_OF_ASC_NODE,ARG_OF_PERICENTER,MEAN_ANOMALY,EPHEMERIS_TYPE,CLASSIFICATION_TYPE,NORAD_CAT_ID,ELEMENT_SET_NO,REV_AT_EPOCH,BSTAR,MEAN_MOTION_DOT,MEAN_MOTION_DDOT
DUCHIFAT-1,2014-033M,2026-06-17T02:03:16.411104,15.64575667,.00030173,98.0464,227.2320,117.8101,242.3462,0,U,40021,999,65573,.89449341E-3,.86906E-3,0
NANOSATC-BR1,2014-033Q,2026-06-17T08:03:59.082336,15.31460569,.0004399,98.0714,200.7372,161.8209,198.3188,0,U,40024,999,65400,.4264E-3,.12879E-3,0
QB50P1,2014-033R,2026-06-17T13:05:32.140032,15.18264690,.00078228,98.0960,179.7168,213.7845,146.2890,0,U,40025,999,65308,.28772221E-3,.5822E-4,0
DTUSAT-2,2014-033W,2026-06-17T12:03:00.910368,15.15020285,.0006656,98.0862,166.2491,223.9036,136.1666,0,U,40030,999,65273,.27108744E-3,.4992E-4,0
QB50P2,2014-033Y,2026-06-17T11:54:44.212320,15.15161004,.00080527,98.0748,165.3957,162.2116,197.9398,0,U,40032,999,65271,.27942375E-3,.517E-4,0
PERSEUS-M1,2014-033AF,2026-06-17T08:53:46.040928,14.95631078,.00102915,97.9641,112.5054,300.6597,59.3608,0,U,40039,999,65066,.11511035E-3,.1219E-4,0
POLYITAN-1,2014-033AJ,2026-06-17T01:15:17.278848,15.33254216,.00086301,98.0938,194.3006,141.6733,218.5122,0,U,40042,999,65357,.49658794E-3,.159E-3,0
TIGRISAT,2014-033AK,2026-06-17T09:14:54.798144,14.85162991,.00505914,97.7829,318.3922,74.5854,286.0942,0,U,40043,999,64565,.1958723E-3,.1661E-4,0
CANX-4,2014-034C,2026-06-16T14:40:32.856960,14.81263782,.00132114,98.3123,42.9035,18.8491,341.3207,0,U,40055,999,64444,.10412025E-3,.755E-5,0
CANX-5,2014-034D,2026-06-17T13:20:06.206496,14.81282475,.0013149,98.3123,43.9259,16.1161,344.0466,0,U,40056,999,63539,.10039841E-3,.726E-5,0
GONETS-M 10,2014-036C,2026-06-17T13:16:54.742368,12.42945210,.00226646,82.5115,307.4463,139.8014,220.4747,0,U,40063,999,54229,-.58280999E-3,-.71E-6,0
METEOR-M 2,2014-037A,2026-06-17T13:37:50.348640,14.21460961,.00067508,98.5112,144.2929,43.4144,316.7565,0,U,40069,999,61937,.26825465E-4,.17E-6,0
DX1,2014-037C,2026-06-17T15:07:17.232384,14.89983855,.00058023,98.3867,130.3585,273.9267,86.1286,0,U,40071,999,64617,.10181687E-3,.919E-5,0
UKUBE-1,2014-037F,2026-06-17T05:37:29.230176,15.13553312,.00025931,98.4230,171.5112,132.6061,227.5387,0,U,40074,999,64856,.38454744E-3,.6818E-4,0
GAOFEN-2,2014-049A,2026-06-17T13:57:43.689888,14.80897646,.00061191,98.0111,232.7884,225.6651,134.4060,0,U,40118,999,63929,.26182973E-4,.149E-5,0
BRITE-PL2 (HEWELIUSZ),2014-049B,2026-06-17T07:21:00.330048,14.94593461,.00152868,97.9098,280.3071,108.1430,252.1456,0,U,40119,999,64146,.14142479E-3,.1474E-4,0
CBERS 4,2014-079A,2026-06-17T14:16:33.083040,14.35510202,.00018482,98.3531,225.4137,62.9288,297.2086,0,U,40336,999,60401,.14390925E-3,.372E-5,0
SMAP,2015-003A,2026-06-17T13:24:16.718112,14.63366870,.00013326,98.1276,175.6478,96.9015,263.2339,0,U,40376,999,60767,.71923756E-4,.325E-5,0
GONETS-M 11,2015-020A,2026-06-17T13:43:27.776064,12.42877461,.00166299,82.4868,30.7525,4.9575,355.1667,0,U,40552,999,50878,.31625444E-3,.54E-6,0
GONETS-M 12,2015-020B,2026-06-17T15:01:11.863200,12.42891433,.00153287,82.4902,31.8427,350.0496,10.0278,0,U,40553,999,50878,.38161332E-3,.63E-6,0
GONETS-M 13,2015-020C,2026-06-17T14:23:01.344768,12.42870866,.00136604,82.4863,30.4741,335.4481,24.5947,0,U,40554,999,50875,.72575203E-3,.11E-5,0
DMC3-FM1,2015-032A,2026-06-17T14:37:36.576768,14.85739261,.00070402,97.6458,33.7681,58.4310,301.7592,0,U,40715,999,58997,.31640726E-4,.223E-5,0
DMC3-FM2,2015-032B,2026-06-17T15:09:21.907584,14.85742355,.00075318,97.6512,35.3630,62.2515,297.9463,0,U,40716,999,58997,-.1901049E-5,-.68E-6,0
DMC3-FM3,2015-032C,2026-06-17T14:05:58.692768,14.85733606,.00067243,97.6564,37.0740,63.3283,296.8621,0,U,40717,999,58997,.6948499E-4,.552E-5,0
CARBONITE 1 (CBNT-1),2015-032D,2026-06-17T14:05:32.836704,14.83588417,.0013148,97.6500,346.6362,296.7079,63.2790,0,U,40718,999,58940,.18916892E-3,.151E-4,0
LILACSAT-2,2015-049K,2026-06-17T14:16:26.572800,15.51456279,.00055214,97.4639,205.4519,242.9611,117.1078,0,U,40908,999,59581,.2436518E-3,.14291E-3,0
