DUCHIFAT-1              
1 40021U 14033M   26168.08560661  .00086906  00000+0  89449-3 0  9998
2 40021  98.0464 227.2320 0003017 117.8101 242.3462 15.64575667655739
NANOSATC-BR1            
1 40024U 14033Q   26168.33610049  .00012879  00000+0  42640-3 0  9995
2 40024  98.0714 200.7372 0004399 161.8209 198.3188 15.31460569654007
QB50P1                  
1 40025U 14033R   26168.54551088  .00005822  00000+0  28772-3 0  9996
2 40025  98.0960 179.7168 0007822 213.7845 146.2890 15.18264690653087
DTUSAT-2                
1 40030U 14033W   26168.50209387  .00004992  00000+0  27109-3 0  9990
2 40030  98.0862 166.2491 0006656 223.9036 136.1666 15.15020285652730
QB50P2                  
1 40032U 14033Y   26168.49634505  .00005170  00000+0  27942-3 0  9998
2 40032  98.0748 165.3957 0008052 162.2116 197.9398 15.15161004652718
PERSEUS-M1              
1 40039U 14033AF  26168.37067177  .00001219  00000+0  11511-3 0  9992
2 40039  97.9641 112.5054 0010291 300.6597  59.3608 14.95631078650663
POLYITAN-1              
1 40042U 14033AJ  26168.05228332  .00015900  00000+0  49659-3 0  9999
2 40042  98.0938 194.3006 0008630 141.6733 218.5122 15.33254216653573
TIGRISAT                
1 40043U 14033AK  26168.38535646  .00001661  00000+0  19587-3 0  9991
2 40043  97.7829 318.3922 0050591  74.5854 286.0942 14.85162991645659
CANX-4                  
1 40055U 14034C   26167.61149140  .00000755  00000+0  10412-3 0  9991
2 40055  98.3123  42.9035 0013211  18.8491 341.3207 14.81263782644448
CANX-5                  
1 40056U 14034D   26168.55562739  .00000726  00000+0  10040-3 0  9994
2 40056  98.3123  43.9259 0013149  16.1161 344.0466 14.81282475635394
GONETS-M 10             
1 40063U 14036C   26168.55341137 -.00000071  00000+0 -58281-3 0  9995
2 40063  82.5115 307.4463 0022664 139.8014 220.4747 12.42945210542298
METEOR-M 2              
1 40069U 14037A   26168.56794385  .00000017  00000+0  26825-4 0  9998
2 40069  98.5112 144.2929 0006750  43.4144 316.7565 14.21460961619379
DX1                     
1 40071U 14037C   26168.63006056  .00000919  00000+0  10182-3 0  9999
2 40071  98.3867 130.3585 0005802 273.9267  86.1286 14.89983855646176
UKUBE-1                 
1 40074U 14037F   26168.23436609  .00006818  00000+0  38455-3 0  9996
2 40074  98.4230 171.5112 0002593 132.6061 227.5387 15.13553312648561
GAOFEN-2                
1 40118U 14049A   26168.58175567  .00000149  00000+0  26183-4 0  9996
2 40118  98.0111 232.7884 0006119 225.6651 134.4060 14.80897646639294
BRITE-PL2 (HEWELIUSZ)   
1 40119U 14049B   26168.30625382  .00001474  00000+0  14142-3 0  9995
2 40119  97.9098 280.3071 0015286 108.1430 252.1456 14.94593461641461
CBERS 4                 
1 40336U 14079A   26168.59482735  .00000372  00000+0  14391-3 0  9995
2 40336  98.3531 225.4137 0001848  62.9288 297.2086 14.35510202604015
SMAP                    
1 40376U 15003A   26168.55852683  .00000325  00000+0  71924-4 0  9990
2 40376  98.1276 175.6478 0001332  96.9015 263.2339 14.63366870607670
GONETS-M 11             
1 40552U 15020A   26168.57184926  .00000054  00000+0  31625-3 0  9997
2 40552  82.4868  30.7525 0016629   4.9575 355.1667 12.42877461508783
GONETS-M 12             
1 40553U 15020B   26168.62583175  .00000063  00000+0  38161-3 0  9995
2 40553  82.4902  31.8427 0015328 350.0496  10.0278 12.42891433508788
GONETS-M 13             
1 40554U 15020C   26168.59932112  .00000110  00000+0  72575-3 0  9991
2 40554  82.4863  30.4741 0013660 335.4481  24.5947 12.42870866508754
DMC3-FM1                
1 40715U 15032A   26168.60945112  .00000223  00000+0  31641-4 0  9994
2 40715  97.6458  33.7681 0007040  58.4310 301.7592 14.85739261589979
DMC3-FM2                
1 40716U 15032B   26168.63150356 -.00000068  00000+0 -19010-5 0  9992
2 40716  97.6512  35.3630 0007531  62.2515 297.9463 14.85742355589979
DMC3-FM3                
1 40717U 15032C   26168.58748487  .00000552  00000+0  69485-4 0  9991
2 40717  97.6564  37.0740 0006724  63.3283 296.8621 14.85733606589978
CARBONITE 1 (CBNT-1)    
1 40718U 15032D   26168.58718561  .00001510  00000+0  18917-3 0  9990
2 40718  97.6500 346.6362 0013148 296.7079  63.2790 14.83588417589408
LILACSAT-2              
1 40908U 15049K   26168.59475200  .00014291  00000+0  24365-3 0  9994
2 40908  97.4639 205.4519 0005521 242.9611 117.1078 15.51456279595813
